{
"type": "FeatureCollection",
"name": "protected_areas",
"crs": { "type": "name", "properties": { "name": "urn:ogc:def:crs:OGC:1.3:CRS84" } },
"features": [
{ "type": "Feature", "properties": { "pa_id": "PA01", "name": "Halvorn Forest Reserve", "designation": "National Park", "year_designated": 1976, "iucn_category": "V", "area_km2": 9.699 }, "geometry": { "type": "Polygon", "coordinates": [ [ [ 14.32678946373056, 41.717227238650949 ], [ 14.330443526959066, 41.722579924436346 ], [ 14.336928979975186, 41.726630617121877 ], [ 14.344990522953884, 41.728513154343389 ], [ 14.353400121060004, 41.72794074142579 ], [ 14.360876599498427, 41.725000576990418 ], [ 14.366281212506733, 41.720140546096239 ], [ 14.368791311577915, 41.714100874432091 ], [ 14.368025495036632, 41.707801242221059 ], [ 14.364101240127869, 41.702200657175638 ], [ 14.357616497783539, 41.698151486224539 ], [ 14.349558356743687, 41.696269849369926 ], [ 14.34115285903359, 41.696842013864 ], [ 14.339013296104891, 41.69748267395579 ], [ 14.336582093390742, 41.700170786003994 ], [ 14.334178561349558, 41.700156885478386 ], [ 14.334169270447823, 41.701057538422589 ], [ 14.332967488295164, 41.70105056909172 ], [ 14.332958180203002, 41.70195122167349 ], [ 14.331756381707111, 41.701944239556767 ], [ 14.331747056422991, 41.702844891775676 ], [ 14.328273453810297, 41.704639435768428 ], [ 14.325759952800611, 41.710678207065925 ], [ 14.32678946373056, 41.717227238650949 ] ], [ [ 14.326808261709905, 41.715425940421881 ], [ 14.328010310100522, 41.715432976122436 ], [ 14.327991545680611, 41.717234274793874 ], [ 14.32678946373056, 41.717227238650949 ], [ 14.326808261709905, 41.715425940421881 ] ], [ [ 14.328010310100522, 41.715432976122436 ], [ 14.32801969166939, 41.714532326571643 ], [ 14.329221723708798, 41.71453934947877 ], [ 14.32921235891852, 41.71543999925035 ], [ 14.328010310100522, 41.715432976122436 ] ], [ [ 14.338819533775334, 41.716396383038344 ], [ 14.338837995317311, 41.714595080134494 ], [ 14.342444104129473, 41.714615771687221 ], [ 14.342425743262678, 41.71641707589206 ], [ 14.34122367301431, 41.716410190847306 ], [ 14.341214475173208, 41.71731084251833 ], [ 14.340012388563494, 41.717303944683572 ], [ 14.340021603184942, 41.716403293229384 ], [ 14.338819533775334, 41.716396383038344 ] ], [ [ 14.337552718663442, 41.722694014399423 ], [ 14.337543467531724, 41.723594664415423 ], [ 14.33512977716518, 41.724481427111947 ], [ 14.335148346994091, 41.722680128096371 ], [ 14.337552718663442, 41.722694014399423 ] ] ] } },
{ "type": "Feature", "properties": { "pa_id": "PA02", "name": "Fyrdal Wetland Park", "designation": "Regional Park", "year_designated": 1971, "iucn_category": "V", "area_km2": 18.093 }, "geometry": { "type": "Polygon", "coordinates": [ [ [ 14.110406238858504, 41.804023625241705 ], [ 14.110418696807422, 41.803123036336792 ], [ 14.111622320790236, 41.803132351247626 ], [ 14.111647201285839, 41.801331172418244 ], [ 14.114066789255261, 41.800449173028113 ], [ 14.114091598960428, 41.798647992162181 ], [ 14.116498682405977, 41.798666530806663 ], [ 14.11651105271846, 41.797765939574113 ], [ 14.117714578441408, 41.797775189694846 ], [ 14.11770222497495, 41.798675781218094 ], [ 14.118905768107034, 41.798685019022251 ], [ 14.118868754871661, 41.801386793594872 ], [ 14.117665161196799, 41.80137755491981 ], [ 14.117652805477725, 41.802278145864371 ], [ 14.118856416001712, 41.802287384829768 ], [ 14.118831736574405, 41.804088566865573 ], [ 14.120035381361472, 41.804097793801986 ], [ 14.119449964652803, 41.806795363707543 ], [ 14.125408919842066, 41.807291231705833 ], [ 14.134157428391772, 41.806387928333692 ], [ 14.14456756101303, 41.802324347377287 ], [ 14.152105335505704, 41.795588742928345 ], [ 14.155623479956871, 41.787207189423214 ], [ 14.154587810019674, 41.778456085460292 ], [ 14.149157719844503, 41.770667609662191 ], [ 14.140160906974646, 41.765026966328051 ], [ 14.128966769554678, 41.762392253826086 ], [ 14.117278095645197, 41.763164200367349 ], [ 14.106872658813165, 41.767225380577528 ], [ 14.099333574899099, 41.773958036079087 ], [ 14.096272719392127, 41.780155652499502 ], [ 14.095633023806695, 41.784543507289733 ], [ 14.096617955471192, 41.790405725464787 ], [ 14.097368451038028, 41.789510937858196 ], [ 14.099775181680887, 41.789529823565729 ], [ 14.099749979139609, 41.791331000269892 ], [ 14.096938113121897, 41.791308929722 ], [ 14.102261996914056, 41.798880246614502 ], [ 14.10874297726982, 41.803368309653578 ], [ 14.111601384733456, 41.804647851846276 ], [ 14.110406238858504, 41.804023625241705 ] ], [ [ 14.131123694379685, 41.785267768062354 ], [ 14.131111533983722, 41.78616836478097 ], [ 14.132314847479863, 41.786177459902007 ], [ 14.132278413477835, 41.78887925004792 ], [ 14.127464960776345, 41.788842790515353 ], [ 14.127513807726602, 41.785240407947796 ], [ 14.131123694379685, 41.785267768062354 ] ], [ [ 14.132278413477835, 41.78887925004792 ], [ 14.135888508819193, 41.78890646236497 ], [ 14.135876413561027, 41.789807059646328 ], [ 14.137079796617208, 41.789816105496691 ], [ 14.137043558055842, 41.79251789732637 ], [ 14.13463669145273, 41.792499791315251 ], [ 14.134648805205989, 41.791599194752187 ], [ 14.132254121375315, 41.790680442755736 ], [ 14.132278413477835, 41.78887925004792 ] ], [ [ 14.129701123162675, 41.801469374288097 ], [ 14.129676748154186, 41.803270561803366 ], [ 14.12847311574553, 41.803261436031462 ], [ 14.128460910557003, 41.804162029285457 ], [ 14.126053613707734, 41.804143739338798 ], [ 14.126090328705006, 41.801441960867187 ], [ 14.129701123162675, 41.801469374288097 ] ], [ [ 14.120257112037773, 41.78788712943156 ], [ 14.120281737552038, 41.786085941608604 ], [ 14.122688355072867, 41.786104346081721 ], [ 14.12267607626864, 41.787004940643904 ], [ 14.123879402705075, 41.787014124266413 ], [ 14.12384261344754, 41.78971590795102 ], [ 14.122639236497903, 41.789706723462672 ], [ 14.122651516981188, 41.788806129334382 ], [ 14.120257112037773, 41.78788712943156 ] ], [ [ 14.119140067767898, 41.781573749829725 ], [ 14.119152393709426, 41.780673155267841 ], [ 14.116745981558433, 41.780654678668562 ], [ 14.116758340599604, 41.779754084542702 ], [ 14.120367909176965, 41.779781779672213 ], [ 14.12035560062793, 41.780682374668466 ], [ 14.121558808107416, 41.780691581469732 ], [ 14.121534222990208, 41.782492771607025 ], [ 14.12033098184688, 41.782483564227078 ], [ 14.12034329151791, 41.781582969520088 ], [ 14.119140067767898, 41.781573749829725 ] ], [ [ 14.109576595340345, 41.776996576121796 ], [ 14.109551678130224, 41.77879776159422 ], [ 14.107145342348877, 41.778779084580691 ], [ 14.107170326873167, 41.776977900282169 ], [ 14.109576595340345, 41.776996576121796 ] ], [ [ 14.102345237486768, 41.777840988474892 ], [ 14.102332677624622, 41.778741579373161 ], [ 14.103535842948963, 41.77875097457256 ], [ 14.103498210418817, 41.781452747284604 ], [ 14.099888564691193, 41.781424521230463 ], [ 14.099926348693979, 41.778722751179401 ], [ 14.102345237486768, 41.777840988474892 ] ] ] } },
{ "type": "Feature", "properties": { "pa_id": "PA03", "name": "Corran Ridge Nature Reserve", "designation": "Nature Reserve", "year_designated": 1988, "iucn_category": "Ia", "area_km2": 3.36 }, "geometry": { "type": "Polygon", "coordinates": [ [ [ 14.251663505651996, 41.871681304634762 ], [ 14.255257452846623, 41.873506024049234 ], [ 14.255299270000123, 41.869903581126103 ], [ 14.256504189375717, 41.869911388100952 ], [ 14.256525061274067, 41.868110165285707 ], [ 14.257729947307942, 41.868117959130871 ], [ 14.257740365635478, 41.867217347262617 ], [ 14.258945235236805, 41.867225128224142 ], [ 14.258955636182227, 41.866324515967605 ], [ 14.26380604882007, 41.863653671897765 ], [ 14.263826711213687, 41.861852444142791 ], [ 14.265031481748295, 41.861860160455457 ], [ 14.265083044983061, 41.857357087339423 ], [ 14.263878358953031, 41.857349372238779 ], [ 14.263919668665888, 41.853746912127114 ], [ 14.262715050696576, 41.853739185363082 ], [ 14.262735736517572, 41.851937954929952 ], [ 14.261531152810131, 41.851930216019312 ], [ 14.259153164045701, 41.849212855765337 ], [ 14.254335040462223, 41.84918167568474 ], [ 14.254345499491269, 41.848281061531218 ], [ 14.253140986677328, 41.84827323517991 ], [ 14.253120034358609, 41.850074462851275 ], [ 14.251915488238767, 41.850066623376954 ], [ 14.251894500222324, 41.851867849980273 ], [ 14.250689920794366, 41.851859997381361 ], [ 14.24944322490477, 41.855454581655287 ], [ 14.247023369053416, 41.856339422836953 ], [ 14.247002239146573, 41.858140645447307 ], [ 14.245797543363837, 41.858132740582349 ], [ 14.245776377729339, 41.859933962120373 ], [ 14.244571648628957, 41.859926044123227 ], [ 14.243324447731473, 41.863520552847987 ], [ 14.240904203642511, 41.86440526065828 ], [ 14.240893550067208, 41.865305869494314 ], [ 14.242098379133784, 41.865313826897633 ], [ 14.242077104337897, 41.867115044637885 ], [ 14.243281967702082, 41.867122989902597 ], [ 14.243250102593867, 41.869824816182344 ], [ 14.244455017167043, 41.869832749556124 ], [ 14.24441259121679, 41.873435183577797 ], [ 14.250437509542328, 41.873474665810093 ], [ 14.251663505651996, 41.871681304634762 ] ] ] } },
{ "type": "Feature", "properties": { "pa_id": "PA04", "name": "Ostrand Marshes", "designation": "National Park", "year_designated": 1978, "iucn_category": "Ia", "area_km2": 3.12 }, "geometry": { "type": "Polygon", "coordinates": [ [ [ 13.936777574293371, 41.748506663341324 ], [ 13.93918265714289, 41.74852889556967 ], [ 13.9392271350504, 41.745827239950792 ], [ 13.94042962709171, 41.745838336143983 ], [ 13.941661701180179, 41.744048313885415 ], [ 13.948861780465908, 41.745015102256225 ], [ 13.948935221612981, 41.740512325349677 ], [ 13.94773282564017, 41.740501319306425 ], [ 13.94655986928319, 41.738689190284248 ], [ 13.941765214759979, 41.737744438744599 ], [ 13.941779999719607, 41.736843884569389 ], [ 13.938173027418742, 41.736810606450796 ], [ 13.938187862074431, 41.735910053175587 ], [ 13.934580946225456, 41.735876662904666 ], [ 13.934595830572334, 41.734976110532976 ], [ 13.930988971192958, 41.734942608117343 ], [ 13.931003905226154, 41.734042056652683 ], [ 13.924992570484511, 41.733985969515068 ], [ 13.924977552511393, 41.734886519216829 ], [ 13.922572989822694, 41.734863995617708 ], [ 13.922557937588147, 41.735764544465489 ], [ 13.921355640483414, 41.735753263445964 ], [ 13.921325500377609, 41.737554359994149 ], [ 13.918905736405421, 41.738432306147125 ], [ 13.918860418283241, 41.741133947304284 ], [ 13.917658022493521, 41.741122626418203 ], [ 13.917597521514987, 41.74472481115896 ], [ 13.918799984484547, 41.744736133468372 ], [ 13.918769763454923, 41.746537225673762 ], [ 13.919972260707469, 41.746548536112883 ], [ 13.919957165958403, 41.747449082351906 ], [ 13.922362196122849, 41.747471666193853 ], [ 13.922347134284548, 41.748372212996557 ], [ 13.927157270039391, 41.748417231105577 ], [ 13.927142274715361, 41.749317779177112 ], [ 13.936762713372115, 41.749407214223638 ], [ 13.936777574293371, 41.748506663341324 ] ] ] } },
{ "type": "Feature", "properties": { "pa_id": "PA90", "name": "Kestrian Coastal Reserve (2 sites)", "designation": "National Park", "year_designated": 1994, "iucn_category": "II", "area_km2": 5.979 }, "geometry": { "type": "MultiPolygon", "coordinates": [ [ [ [ 13.952009885140647, 41.62525094453342 ], [ 13.955610649059469, 41.62528371730005 ], [ 13.955625183143148, 41.624383141441996 ], [ 13.958025662339908, 41.624404926621473 ], [ 13.958040162371949, 41.623504349932659 ], [ 13.96045507680191, 41.622625506794847 ], [ 13.960527396842719, 41.618122617019587 ], [ 13.959327272444645, 41.618111758142824 ], [ 13.959385183383048, 41.614509445066084 ], [ 13.958185126398574, 41.614498575030524 ], [ 13.958301050123815, 41.607293944618213 ], [ 13.959500973635571, 41.607304811919427 ], [ 13.959529914611922, 41.605503652175869 ], [ 13.96072980542163, 41.605514506272861 ], [ 13.960744258242789, 41.6046139258412 ], [ 13.964181728056595, 41.602843528145122 ], [ 13.963108672634466, 41.601933142731944 ], [ 13.961850610779585, 41.602406974647899 ], [ 13.960768253018871, 41.603118678760971 ], [ 13.9607587104062, 41.603713345263884 ], [ 13.959753339160191, 41.603704251941977 ], [ 13.95799920403617, 41.604687784389867 ], [ 13.957510935029342, 41.604927145737761 ], [ 13.957130134968887, 41.605481906419755 ], [ 13.956392906470644, 41.605475215915774 ], [ 13.955033701299669, 41.606141486161448 ], [ 13.953932185325002, 41.606622797146706 ], [ 13.95350136267805, 41.607250350198804 ], [ 13.952516453044085, 41.607241379713457 ], [ 13.951714235238427, 41.60759188340576 ], [ 13.95109163412266, 41.607838948628498 ], [ 13.951086934681177, 41.608129055113238 ], [ 13.950376885567982, 41.608122573946751 ], [ 13.948675854323552, 41.608797546190083 ], [ 13.948672441949824, 41.609007708417614 ], [ 13.948158053039036, 41.609003002807306 ], [ 13.948066866863289, 41.609039183881137 ], [ 13.946260838733105, 41.60970478587047 ], [ 13.94625788448589, 41.609886310107285 ], [ 13.945780160981622, 41.609881929934666 ], [ 13.944146763627623, 41.610483863048849 ], [ 13.943846120653266, 41.610589634711367 ], [ 13.943843262291281, 41.610764860177632 ], [ 13.943360662983931, 41.610760425134067 ], [ 13.941431917441843, 41.611438953914409 ], [ 13.941428575367897, 41.611643358624022 ], [ 13.940865603987474, 41.611638172924728 ], [ 13.940045296032537, 41.611926735508604 ], [ 13.939017741644619, 41.612282733658724 ], [ 13.939013823717644, 41.612521805441851 ], [ 13.938345474573531, 41.61251563470487 ], [ 13.936603625375875, 41.613119056831131 ], [ 13.93659900734243, 41.613400200626465 ], [ 13.935814078428225, 41.613392936614368 ], [ 13.935396500348416, 41.613539863440089 ], [ 13.935384169891496, 41.614289664697672 ], [ 13.940140117974419, 41.617035740028186 ], [ 13.940110625792434, 41.618836884949388 ], [ 13.941310756245031, 41.618847944591145 ], [ 13.941281294760529, 41.620649089624536 ], [ 13.943666926077841, 41.62157174571027 ], [ 13.943637527344077, 41.623372891257567 ], [ 13.944837743267755, 41.623383915053445 ], [ 13.946008625229908, 41.625196072670846 ], [ 13.948409127196554, 41.62521805900348 ], [ 13.948394492272728, 41.626118632651099 ], [ 13.951995300305949, 41.626151519215156 ], [ 13.952009885140647, 41.62525094453342 ] ] ], [ [ [ 14.291662189184015, 41.741335013187545 ], [ 14.292864711739798, 41.741342420237572 ], [ 14.292884473658582, 41.739541142468383 ], [ 14.295299299608093, 41.738655278324011 ], [ 14.295318991636107, 41.736853998764545 ], [ 14.296521431547195, 41.736861366905316 ], [ 14.29776311621784, 41.733266159771496 ], [ 14.300177640288013, 41.732380189806044 ], [ 14.301419031887118, 41.728784938141402 ], [ 14.303833338113492, 41.727898888994289 ], [ 14.305084141523754, 41.723402948979881 ], [ 14.302679759641116, 41.723388383131464 ], [ 14.301497078301967, 41.72157979459589 ], [ 14.296688455924919, 41.721550463529013 ], [ 14.296698276860436, 41.720649820862022 ], [ 14.294294001919969, 41.720635080341644 ], [ 14.294303855973183, 41.719734437994475 ], [ 14.287091142645078, 41.719689916042427 ], [ 14.287081187897162, 41.720590556989983 ], [ 14.284676920176139, 41.720575615276289 ], [ 14.284666931408477, 41.721476255610533 ], [ 14.28104040328668, 41.723255026846196 ], [ 14.281010280447445, 41.725956944002853 ], [ 14.279808047929269, 41.725949415140846 ], [ 14.279747689161265, 41.731353244155976 ], [ 14.280950022416507, 41.731360774438095 ], [ 14.282132300043546, 41.733169568276331 ], [ 14.286931812244067, 41.734100153971767 ], [ 14.286921850237153, 41.735000792621747 ], [ 14.290509236485226, 41.736824400384101 ], [ 14.290439836154665, 41.743128869816601 ], [ 14.291642391861854, 41.743136289916762 ], [ 14.291662189184015, 41.741335013187545 ] ] ] ] } }
]
}
